OBJECT_NAME,OBJECT_ID,EPOCH,MEAN_MOTION,ECCENTRICITY,INCLINATION,RA_OF_ASC_NODE,ARG_OF_PERICENTER,MEAN_ANOMALY,EPHEMERIS_TYPE,CLASSIFICATION_TYPE,NORAD_CAT_ID,ELEMENT_SET_NO,REV_AT_EPOCH,BSTAR,MEAN_MOTION_DOT,MEAN_MOTION_DDOT
LEMUR-2-ROUNDTRIPPER,2025-009DG,2026-07-13T04:10:20.703936,15.04211677,.00044116,97.7252,276.8201,68.0199,292.1495,0,U,62711,999,8153,.38802888E-3,.5331E-4,0
LEMUR-2-MYNAMEISJEFF,2025-009DH,2026-07-13T04:08:08.922336,15.04203117,.00039101,97.7301,277.2155,101.5856,258.5808,0,U,62712,999,8153,.37504573E-3,.5149E-4,0
LEMUR-2-LEIA-PHILIP,2025-052AN,2026-07-13T14:23:32.361504,14.97390327,.00050978,97.6809,86.1029,122.8529,237.3184,0,U,63246,999,7262,.41843767E-4,.429E-5,0
LEMUR-2-LIA-MARTIN,2025-052AQ,2026-07-13T03:03:21.983328,14.98021131,.00054022,97.6876,86.1537,95.0747,265.1092,0,U,63248,999,7256,.25087482E-3,.2906E-4,0
LEMUR-2-DELOITTE-1,2025-052BB,2026-07-13T15:24:20.812320,14.97774683,.00024896,97.6883,86.9908,66.3093,293.8391,0,U,63259,999,7265,.19767541E-3,.2262E-4,0
LEMUR-2-EMERSONROSE,2025-052BD,2026-07-13T15:47:01.063680,14.99282406,.00027666,97.6886,87.6160,63.7005,296.4502,0,U,63261,999,7270,.24124303E-3,.2886E-4,0
LEMUR-2-MARACHE-FRAN,2025-052BE,2026-07-12T16:20:37.711392,15.00306023,.00048952,97.6849,87.0169,264.0208,96.0458,0,U,63262,999,7258,.15633726E-3,.19E-4,0
LEMUR-2-THEFALCONER,2025-052BG,2026-07-13T14:31:39.780192,14.97560038,.00003416,97.6840,86.5474,338.1226,21.9981,0,U,63264,999,7264,.10559798E-3,.1175E-4,0
LEMUR-2-UNTITLED-SC,2025-061A,2026-07-13T11:12:39.148992,15.13639878,.00190525,97.5650,169.6420,168.8736,191.2921,0,U,63351,999,7156,.1152203E-3,.2012E-4,0
LEMUR-2-ESPERANZA,2025-061B,2026-07-13T10:37:18.498144,15.13745924,.00186722,97.5656,169.7173,168.1167,192.0509,0,U,63352,999,7156,.90485091E-4,.157E-4,0
LEMUR-2-KREMPEL-BRO2,2025-061C,2026-07-13T12:40:29.995680,15.14172623,.00198145,97.5703,170.3693,160.8247,199.3735,0,U,63353,999,7159,.10805305E-3,.1912E-4,0
LEMUR-2-THERMORAPTOR,2025-061D,2026-07-13T10:37:28.619040,15.14254963,.00195622,97.5708,170.3650,159.9736,200.2267,0,U,63354,999,7158,.99275518E-4,.1755E-4,0
LEMUR-2-NEUROSPICY,2025-061E,2026-07-13T09:53:46.565664,15.14373436,.00172967,97.5633,169.9407,162.8666,197.3153,0,U,63355,999,7158,.13057539E-3,.2336E-4,0
LEMUR-2-TILLINFINITY,2025-061F,2026-07-13T10:30:00.177120,15.14957268,.00188953,97.5622,170.2747,151.6097,208.6168,0,U,63356,999,7161,.10660104E-3,.1928E-4,0
LEMUR-2-KREMPEL-BRO1,2025-061G,2026-07-13T11:31:45.524064,15.14764752,.0019493,97.5622,170.2260,152.8345,207.3911,0,U,63357,999,7161,.12643179E-3,.2287E-4,0
LEMUR-2-LANGER2SPACE,2025-061H,2026-07-13T10:42:22.618368,15.14458351,.00172576,97.5627,169.9953,161.0952,199.0925,0,U,63358,999,7159,.98597901E-4,.1752E-4,0
LEMUR-2-BALTO,2025-052BH,2026-07-13T12:46:42.596544,15.00355111,.00051928,97.6932,87.8446,334.7426,25.3543,0,U,63395,999,7271,.22575867E-3,.2774E-4,0
LEMUR-2-KRISH,2025-135AK,2026-07-13T13:20:03.174720,14.96442089,.00014763,97.7771,309.2558,96.1333,264.0057,0,U,64561,999,5786,.19038595E-3,.2101E-4,0
LEMUR-2-HUBBLE-4,2025-135AP,2026-07-13T06:22:16.300416,14.93682329,.0002518,97.7717,307.8688,167.2748,192.8536,0,U,64565,999,5776,.10981E-3,.1104E-4,0
LEMUR-2-SEJONG-2,2025-135BL,2026-07-13T13:51:04.260096,14.96904193,.00038605,97.7705,309.4230,226.5172,133.5729,0,U,64586,999,5789,.18846807E-3,.2105E-4,0
LEMUR-2-HUBBLE-5,2025-135BT,2026-07-13T06:35:58.564032,14.94210500,.0004223,97.7739,308.5451,243.2055,116.8733,0,U,64840,999,5780,.10103E-3,.1025E-4,0
LEMUR-2-KARENDARRELL,2025-135BU,2026-07-13T04:42:02.869920,15.00482255,.0012247,97.7709,310.3687,110.7929,249.4607,0,U,64841,999,5791,.35154E-3,.4373E-4,0
LEMUR-2-LUCILLE-ROSE,2025-135BV,2026-07-13T13:39:58.444416,15.00477141,.00146808,97.7706,310.7769,193.9631,166.1189,0,U,65403,999,5259,.28939248E-3,.3591E-4,0
LEMUR-2-AFFIE-WAUWIE,2025-248C,2026-07-13T09:47:59.059680,15.28200773,.0008714,45.3884,332.8093,240.1921,119.8103,0,U,66295,999,3860,.46625316E-3,.12783E-3,0
OTTER SDM,2025-276N,2026-07-13T04:31:08.425344,15.20042584,.0004241,97.4209,267.2358,263.4653,96.6100,0,U,66678,999,3436,.16462E-3,.3482E-4,0
LEMUR-2-STAS-GORBUK,2025-276W,2026-07-12T17:57:30.731904,15.19644338,.00034564,97.4243,266.8551,260.6907,99.3937,0,U,66686,999,3429,.18039849E-3,.3778E-4,0
LEMUR-2-TEODOR,2025-276DG,2026-07-12T18:28:26.063040,15.21322077,.00022806,97.4147,267.1448,89.7179,270.4318,0,U,66768,999,3433,.16438721E-3,.361E-4,0
LEMUR-2-LAILA,2025-276DQ,2026-07-13T03:13:40.341216,15.21550887,.00029115,97.4170,267.6416,97.3279,262.8287,0,U,66776,999,3439,.16683159E-3,.369E-4,0
LEMUR-2-CELIJO-SB-PK,2025-276DW,2026-07-12T23:36:49.779072,15.00273190,.0007063,97.5201,263.9101,69.7393,290.4590,0,U,66781,999,2649,.28425417E-3,.3504E-4,0
LEMUR-2-FINNIAN,2025-276DX,2026-07-12T18:06:41.046336,15.00601115,.00078857,97.5339,263.9508,9.8225,350.3152,0,U,66782,999,2383,.14176978E-3,.1734E-4,0
